PLEIADES NEO 3          
1 48268U 21034A   26186.28431904 -.00000132  00000+0 -10139-4 0  9997
2 48268  97.8934 260.7904 0001322  90.7974 269.3390 14.81672306280338
PLEIADES NEO 4          
1 49070U 21073E   26184.49469955  .00000550  00000+0  76520-4 0  9998
2 49070  97.8935 259.0231 0001334  88.9745 271.1620 14.81667489263786
