{"fetched_at":"2026-07-05T17:36:46.329Z","source":"https://celestrak.org/NORAD/elements/gp.php?NAME=PLEIADES&FORMAT=JSON","constellation":"pleiades-neo","records":[{"OBJECT_NAME":"PLEIADES NEO 3","OBJECT_ID":"2021-034A","EPOCH":"2026-07-05T06:49:25.165056","CLASSIFICATION_TYPE":"U","MEAN_MOTION":14.81672306,"ECCENTRICITY":0.00013227,"INCLINATION":97.8934,"RA_OF_ASC_NODE":260.7904,"ARG_OF_PERICENTER":90.7974,"MEAN_ANOMALY":269.339,"EPHEMERIS_TYPE":0,"NORAD_CAT_ID":48268,"ELEMENT_SET_NO":999,"REV_AT_EPOCH":28033,"BSTAR":-0.000010138757,"MEAN_MOTION_DOT":-0.00000132,"MEAN_MOTION_DDOT":0},{"OBJECT_NAME":"PLEIADES NEO 4","OBJECT_ID":"2021-073E","EPOCH":"2026-07-03T11:52:22.041120","CLASSIFICATION_TYPE":"U","MEAN_MOTION":14.81667489,"ECCENTRICITY":0.0001334,"INCLINATION":97.8935,"RA_OF_ASC_NODE":259.0231,"ARG_OF_PERICENTER":88.9745,"MEAN_ANOMALY":271.162,"EPHEMERIS_TYPE":0,"NORAD_CAT_ID":49070,"ELEMENT_SET_NO":999,"REV_AT_EPOCH":26378,"BSTAR":0.00007652,"MEAN_MOTION_DOT":0.0000055,"MEAN_MOTION_DDOT":0}]}
